TJS-9                   
1 50574U 21135A   24078.99144829 -.00000312  00000+0  00000+0 0  9995
2 50574   0.0160 158.5917 0000643 201.2596 311.3379  1.00270281  8235
USA 324                 
1 51280U 22006A   24077.38376806 -.00000220  00000+0  00000+0 0  9990
2 51280   1.5934  89.7731 0000804 315.9705  54.1472  1.00397259  7867
USA 325                 
1 51281U 22006B   24062.41368758 -.00000330  00000+0  00000+0 0  9998
2 51281   0.4415  86.6568 0002040   3.8918 350.9757  1.00133372  7729
GOES 18                 
1 51850U 22021A   24079.00850472  .00000083  00000+0  00000+0 0  9993
2 51850   0.0350  18.4115 0000806 278.7172 105.9462  1.00271457  7581
CHINASAT 6D (ZX 6D)     
1 52255U 22038A   24078.16344490 -.00000368  00000+0  00000+0 0  9992
2 52255   0.0272 182.3381 0001993 131.8321  45.8134  1.00267795  7211
NILESAT 301             
1 52817U 22061A   24078.90396611 -.00000071  00000+0  00000+0 0  9997
2 52817   0.0591 348.4238 0006082   7.0867 139.8487  1.00273343  6511
CMS-02 (GSAT 24)        
1 52903U 22067A   24078.96607135 -.00000179  00000+0  00000+0 0  9990
2 52903   0.0622 268.5101 0005121 171.2869 168.0056  1.00271880  6376
MEASAT 3D               
1 52904U 22067B   24078.55276219 -.00000255  00000+0  00000+0 0  9996
2 52904   0.0444 349.3780 0003262 342.7049 134.9843  1.00271544  6428
SES-22                  
1 52933U 22071A   24079.00893983  .00000075  00000+0  00000+0 0  9996
2 52933   0.0029  75.3132 0001469 258.4146  71.5016  1.00271383  6344
WFOV (USA 332)          
1 52940U 22073A   24078.89285598 -.00000376  00000+0  00000+0 0  9994
2 52940   1.5919  89.3972 0002289 226.0480 302.1717  1.00272970  6148
TIANLIAN 2-03           
1 53100U 22078A   24078.25443683  .00000057  00000+0  00000+0 0  9994
2 53100   1.4624 279.1619 0002418  91.6102 267.7068  1.00272824  6320
SBIRS GEO-6 (USA 336)   
1 53355U 22092A   24078.56224764 -.00000306  00000+0  00000+0 0  9991
2 53355   4.7617 311.0060 0004203  38.5294 168.4367  1.00271484  6007
EUTELSAT KONNECT VHTS   
1 53765U 22110A   24078.89841181  .00000003  00000+0  00000+0 0  9994
2 53765   0.0538  96.5286 0002753 243.4904 163.0003  1.00271372  5576
CHINASAT 1E (ZX 1E)     
1 53813U 22112A   24079.00604900 -.00000163  00000+0  00000+0 0  9998
2 53813   0.1080 288.0711 0002160  53.4085 279.0695  1.00274381  5618
SES-20                  
1 53960U 22123A   24078.65728822 -.00000114  00000+0  00000+0 0  9999
2 53960   0.0134 155.5046 0001287 261.3187 253.3843  1.00270297  5310
SES-21                  
1 53961U 22123B   24078.65171876  .00000056  00000+0  00000+0 0  9995
2 53961   0.0154  98.2045 0001147 259.0001 283.0891  1.00271230  5321
GALAXY 33 (G-33)        
1 54026U 22128A   24078.65128366  .00000066  00000+0  00000+0 0  9990
2 54026   0.0154 164.1756 0001812 189.3559 284.6169  1.00270623  5520
GALAXY 34 (G-34)        
1 54027U 22128B   24079.01007112  .00000045  00000+0  00000+0 0  9994
2 54027   0.0209 185.0657 0001461 172.5998  54.0778  1.00270314  5550
ANGOSAT 2               
1 54033U 22131A   24079.04035498  .00000122  00000+0  00000+0 0  9992
2 54033   0.0095 166.9460 0000675 288.2149 119.4103  1.00272129  5250
EUTELSAT HOTBIRD 13F    
1 54048U 22134A   24077.03362442  .00000075  00000+0  00000+0 0  9997
2 54048   0.0642 294.2638 0003318  22.7393 243.1723  1.00272999  5208
LDPE-2                  
1 54219U 22144A   24078.87139440 -.00000146  00000+0  00000+0 0  9991
2 54219   3.6099  65.1529 0000444 347.8083 331.0838  1.00635996  3573
EUTELSAT HOTBIRD 13G    
1 54225U 22146A   24078.92449979  .00000073  00000+0  00000+0 0  9995
2 54225   0.0512 243.9988 0002666 357.1566 281.6052  1.00272076  5008
CHINASAT 19 (ZX 19)     
1 54230U 22148A   24078.85346774 -.00000094  00000+0  00000+0 0  9998
2 54230   0.0362 266.9072 0005609   4.9647  15.6515  1.00271270  5142
GALAXY 31 (G-31)        
1 54243U 22153A   24078.65372029  .00000000  00000+0  00000+0 0  9994
2 54243   0.0151 228.9252 0001837 110.8450 311.2362  1.00271839  4907
GALAXY 32 (G-32)        
1 54244U 22153B   24076.51177111 -.00000186  00000+0  00000+0 0  9999
2 54244   0.0191  89.7514 0002911 264.1893 273.8560  1.00271907  4891
EUTELSAT 10B            
1 54259U 22157A   24078.83035819  .00000054  00000+0  00000+0 0  9997
2 54259   0.0559  95.9270 0003840 199.3001 190.5457  1.00269524  4808
GALAXY 35 (G-35)        
1 54741U 22170A   24078.87400508 -.00000175  00000+0  00000+0 0  9998
2 54741   0.0132 233.2021 0001350 117.6593  47.5621  1.00271406  4665
GALAXY 36 (G-36)        
1 54742U 22170B   24078.52410497 -.00000198  00000+0  00000+0 0  9994
2 54742   0.0137 130.0957 0002351 287.7025 218.4221  1.00271520  4543
METEOSAT-12 (MTG-I1)    
1 54743U 22170C   24078.89841181 -.00000021  00000+0  00000+0 0  9998
2 54743   0.4014  16.2017 0000905 338.3371 145.5303  1.00268090  4756
SHIJIAN-23 (SJ-23)      
1 55131U 23002A   24078.91872285 -.00000323  00000+0  00000+0 0  9992
2 55131   1.5986  88.8876 0001260 300.6769 224.0666  1.00076454  4288
USA 340                 
1 55138U 22144E   24079.00000000  .00000086  00000+0  00000+0 0  9999
2 55138   3.5677  65.9511 0000925  31.3270 293.0665  0.99553606  3569
USA 342                 
1 55263U 23008A   24076.29285463  .00000127  00000+0  00000+0 0  9990
2 55263   0.0156 136.9350 0000028 146.2110  20.6439  1.00272314  4274
LDPE-3A                 
1 55264U 23008B   24079.01381309 -.00000122  00000+0  00000+0 0  9996
2 55264   1.0141  88.3734 0000424  24.5621 318.6744  1.00640474  3589
ELEKTRO-L 4             
1 55506U 23016A   24078.05007058 -.00000071  00000+0  00000+0 0  9996
2 55506   0.0261 113.2068 0002137 192.6634  54.0837  1.00273377  4097
AMAZONAS NEXUS          
1 55508U 23017A   24079.02364664 -.00000296  00000+0  00000+0 0  9995
2 55508   0.0459  32.5391 0004747 339.0763 112.9291  1.00273685  4033
CHINASAT 26 (ZX 26)     
1 55686U 23023A   24078.71576990 -.00000368  00000+0  00000+0 0  9991
2 55686   0.0677  77.7457 0002827 326.4264 155.3624  1.00271284  4000
LUCH-5X (OLYMP-K 2)     
1 55841U 23031A   24078.89841181  .00000003  00000+0  00000+0 0  9994
2 55841   0.0177 161.8706 0000896 171.7161 169.4143  1.00269817  3720
GAOFEN-13 02            
1 55912U 23036A   24078.85016088 -.00000245  00000+0  00000+0 0  9993
2 55912   2.2203 303.9867 0004592 323.0375   2.5764  1.00275226  3868
SES-18                  
1 55970U 23038A   24078.87209059 -.00000115  00000+0  00000+0 0  9999
2 55970   0.0468 264.1485 0002465  42.8458  80.7472  1.00273673  3879
SES-19                  
1 55971U 23038B   24078.65067449  .00000074  00000+0  00000+0 0  9994
2 55971   0.0387 280.8457 0001828  65.7983 289.3583  1.00270472  3844
INTELSAT 40E (IS-40E)   
1 56174U 23052A   24076.58330368 -.00000186  00000+0  00000+0 0  9994
2 56174   0.0097 200.9254 0000764 156.7956 295.9005  1.00273234  3576
VIASAT-3                
1 56370U 23060A   24079.01807720 -.00000199  00000+0  00000+0 0  9997
2 56370   0.0247 120.8018 0000450 272.8669  60.9660  1.00272177  3215
ARCTURUS                
1 56371U 23060B   24079.02098133 -.00000130  00000+0  00000+0 0  9994
2 56371   0.6517  89.4272 0001354 304.8016 228.3545  1.00273810  3228
GS-1                    
1 56372U 23060C   24078.49589829 -.00000073  00000+0  00000+0 0  9998
2 56372   0.5993  87.9935 0001941 263.3094 169.4465  1.00272300  3197
BEIDOU-3 G4             
1 56564U 23066A   24078.92435387 -.00000127  00000+0  00000+0 0  9994
2 56564   2.3491 288.2091 0002726 195.0528 186.3689  1.00273738  3188
ARABSAT-7B (BADR-8)     
1 56757U 23075A   24078.86438208  .00000131  00000+0  00000+0 0  9990
2 56757   0.0779  27.4777 0005839 327.3000 159.2671  1.00272781  2910
IRNSS-1J (NVS-01)       
1 56759U 23076A   24078.98988189 -.00000355  00000+0  00000+0 0  9993
2 56759   4.2299 268.1203 0006839  22.4317  12.3184  1.00268900  2981
NUSANTARA TIGA (SATRIA) 
1 57045U 23086A   24078.84998684 -.00000249  00000+0  00000+0 0  9991
2 57045   0.0533 316.6035 0005702  12.1015 300.1574  1.00270127  1531
H2SAT (HEINRICH HERTZ)  
1 57213U 23093A   24078.89841181 -.00000013  00000+0  00000+0 0  9999
2 57213   0.0195 170.7584 0000429 345.3593 344.7413  1.00270758  2697
SYRACUSE 4B             
1 57214U 23093B   24078.68243689 -.00000067  00000+0  00000+0 0  9995
2 57214   0.0099 185.6865 0000308 138.3799  91.8847  1.00270334  1287
JUPITER 3 (ECHOSTAR 24) 
1 57479U 23108A   24078.77336130 -.00000163  00000+0  00000+0 0  9996
2 57479   0.0211 171.5922 0001348 185.2699   3.1371  1.00270058  2427
GALAXY 37 (G-37)        
1 57493U 23112A   24079.01050624  .00000035  00000+0  00000+0 0  9993
2 57493   0.0120 158.2975 0002175 196.3481  59.1814  1.00269392  2290
LUDI TANCE-4 01A        
1 57624U 23120A   24078.84216146 -.00000203  00000+0  00000+0 0  9999
2 57624  15.8466 213.8808 0003378 150.1631 205.4787  1.00267836  2316
TJS-10                  
1 58204U 23169A   24078.85538226 -.00000009  00000+0  00000+0 0  9998
2 58204   0.4163  88.8324 0007173 262.8877 306.3511  1.00273123  1319
CHINASAT 6E (ZX 6E)     
1 58253U 23172A   24078.85952233 -.00000375  00000+0  00000+0 0  9990
2 58253   0.0228 262.4578 0001865 166.2759 173.0765  1.00270503  1432
YAOGAN-41               
1 58582U 23197A   24078.81090983 -.00000376  00000+0  00000+0 0  9994
2 58582   4.7954 307.7145 0015614 164.2239 120.1147  1.00272198  1096
MERAH PUTIH 2           
1 58995U 24035A   24076.26583175 -.00000370  00000+0  00000+0 0  9995
2 58995   0.0433 334.1246 0000494   6.5344  42.3104  1.00273582   338
TJS-11                  
1 59020U 24037A   24078.64038063 -.00000381  00000+0  00000+0 0  9994
2 59020   5.4875 321.1217 0004167  40.1405 166.1513  1.00269792   375
HULIANWAN GAOGUI-01 (H*)
1 59069U 24040A   24078.97082392  .00000142  00000+0  00000+0 0  9995
2 59069   0.0486 331.4693 0003022  61.8882 166.7750  1.00272449   357
